[{"OBJECT_NAME":"PROPCUBE 1 (FLORA)","OBJECT_ID":"2015-058N","EPOCH":"2026-03-09T22:10:52.593312","MEAN_MOTION":14.88641208,"ECCENTRICITY":0.01301152,"INCLINATION":64.774,"RA_OF_ASC_NODE":242.7389,"ARG_OF_PERICENTER":100.0601,"MEAN_ANOMALY":261.522,"EPHEMERIS_TYPE":0,"CLASSIFICATION_TYPE":"U","NORAD_CAT_ID":40976,"ELEMENT_SET_NO":999,"REV_AT_EPOCH":10148,"BSTAR":0.00044491072,"MEAN_MOTION_DOT":4.703e-5,"MEAN_MOTION_DDOT":0},{"OBJECT_NAME":"STARLINK-5586","OBJECT_ID":"2023-013AX","EPOCH":"2026-03-09T22:00:01.999584","MEAN_MOTION":15.10202202,"ECCENTRICITY":0.00020543,"INCLINATION":43.0003,"RA_OF_ASC_NODE":286.1442,"ARG_OF_PERICENTER":239.559,"MEAN_ANOMALY":88.6644,"EPHEMERIS_TYPE":0,"CLASSIFICATION_TYPE":"U","NORAD_CAT_ID":55376,"ELEMENT_SET_NO":999,"REV_AT_EPOCH":577,"BSTAR":0.0026573218,"MEAN_MOTION_DOT":0.00044229,"MEAN_MOTION_DDOT":0}]
